OBJECT_NAME,OBJECT_ID,EPOCH,MEAN_MOTION,ECCENTRICITY,INCLINATION,RA_OF_ASC_NODE,ARG_OF_PERICENTER,MEAN_ANOMALY,EPHEMERIS_TYPE,CLASSIFICATION_TYPE,NORAD_CAT_ID,ELEMENT_SET_NO,REV_AT_EPOCH,BSTAR,MEAN_MOTION_DOT,MEAN_MOTION_DDOT
GAOFEN-3,2016-049A,2026-06-21T12:34:48.231840,14.42216237,.0001476,98.4013,180.2452,97.9116,262.2242,0,U,41727,999,51927,.51315E-4,.126E-5,0
SKYSAT-C4,2016-058B,2026-06-20T07:18:26.766144,15.48669604,.0001584,96.9172,192.9462,137.0730,223.0646,0,U,41771,999,54595,.27482E-3,.14622E-3,0
SKYSAT-C5,2016-058C,2026-06-20T08:44:50.373024,15.34507683,.0000885,97.0466,211.8632,282.7780,77.3365,0,U,41772,999,54423,.1899E-3,.6273E-4,0
SKYSAT-C2,2016-058D,2026-06-19T23:38:00.223584,15.42124031,.00044633,97.0167,192.9745,64.8229,295.3482,0,U,41773,999,54548,.23850408E-3,.10132E-3,0
SKYSAT-C3,2016-058E,2026-06-20T08:46:55.931232,15.52656860,.0001389,96.9003,202.0899,101.4792,258.6618,0,U,41774,999,54660,.32765E-3,.20111E-3,0
ALSAT-1B,2016-059C,2026-06-21T12:31:29.593920,14.72277021,.0008425,97.7752,181.0987,204.3396,155.7415,0,U,41785,999,52121,.36888E-4,.186E-5,0
PATHFINDER 1,2016-059E,2026-06-19T22:21:45.809280,14.67665593,.00280076,97.8166,170.0842,194.6747,165.3648,0,U,41787,999,52011,.78647849E-4,.403E-5,0
SCATSAT 1,2016-059H,2026-06-20T11:01:42.261024,14.79531207,.0053498,98.1189,235.2594,236.6981,122.9100,0,U,41790,999,10207,.11295E-3,.807E-5,0
GOKTURK 1A,2016-073A,2026-06-21T13:19:28.045344,14.62777208,.0001432,98.1242,67.1608,78.1323,282.0039,0,U,41875,999,50946,.63156E-4,.275E-5,0
RESOURCESAT-2A,2016-074A,2026-06-21T12:07:00.659136,14.21617870,.0003304,98.7521,245.9744,76.6022,283.5524,0,U,41877,999,49491,.75879E-4,.122E-5,0
CARTOSAT-2D,2017-008A,2026-06-21T12:07:58.293984,15.19237778,.0004211,97.4102,231.7316,216.1249,143.9702,0,U,41948,999,51823,.29221E-3,.6091E-4,0
SENTINEL-2B,2017-013A,2026-06-21T11:21:26.698752,14.30818862,.0001181,98.5686,247.1877,88.2642,271.8676,0,U,42063,999,48525,.14824E-3,.345E-5,0
CARTOSAT-2E,2017-036C,2026-06-21T12:33:28.797408,15.19282669,.0002199,97.4268,232.2553,297.1780,62.9230,0,U,42767,999,49880,.20196E-3,.4193E-4,0
FORMOSAT-5,2017-049A,2026-06-20T10:22:13.813248,14.50899817,.0012638,98.2254,246.6698,75.3872,284.8723,0,U,42920,999,46714,.35731E-4,.97E-6,0
SENTINEL-5P,2017-064A,2026-06-20T10:39:42.037920,14.19519441,.0000991,98.7925,113.5524,87.3098,272.8191,0,U,42969,999,45002,.40558E-4,.41E-6,0
SKYSAT-C11,2017-068A,2026-06-20T09:31:57.113184,15.58039677,.0000512,97.4360,320.3680,98.6776,261.4537,0,U,42987,999,48374,.33189E-3,.24827E-3,0
SKYSAT-C10,2017-068B,2026-06-20T08:33:56.269728,15.34683060,.0001114,97.4513,308.2348,100.0018,260.1351,0,U,42988,999,48284,.22285E-3,.7409E-4,0
SKYSAT-C9,2017-068C,2026-06-20T08:30:41.557824,15.41629285,.0009511,97.4434,309.1976,123.1012,237.1149,0,U,42989,999,48324,.26366E-3,.11033E-3,0
SKYSAT-C8,2017-068D,2026-06-20T07:45:44.633664,15.37027507,.0001437,97.4530,308.0128,95.5767,264.5641,0,U,42990,999,48279,.24879E-3,.893E-4,0
SKYSAT-C7,2017-068E,2026-06-20T09:10:26.999616,15.36980206,.0007174,97.4541,309.0621,97.6868,262.5191,0,U,42991,999,48286,.25123E-3,.9012E-4,0
SKYSAT-C6,2017-068F,2026-06-20T08:13:21.492768,15.34256947,.0004575,97.4576,308.9800,129.5530,230.6117,0,U,42992,999,48280,.24159E-3,.7933E-4,0
CARTOSAT-2F,2018-004A,2026-06-21T11:45:07.795584,15.19244053,.0001151,97.4787,232.0827,183.3047,176.8180,0,U,43111,999,46798,.1725E-3,.3566E-4,0
GAOFEN-1 02,2018-031A,2026-06-21T12:00:23.142240,14.76462409,.0003499,98.0520,235.0160,23.7295,336.4075,0,U,43259,999,44333,.10961E-3,.711E-5,0
GAOFEN-1 03,2018-031B,2026-06-21T13:06:27.573408,14.76473961,.0003641,98.0516,234.9193,70.2600,289.9002,0,U,43260,999,44333,.74163E-4,.465E-5,0
GAOFEN-1 04,2018-031D,2026-06-21T12:31:36.606144,14.76438382,.000213,98.0522,235.0866,73.2596,286.8847,0,U,43262,999,44332,.63905E-4,.393E-5,0
SENTINEL-3B,2018-039A,2026-06-20T09:58:35.272992,14.26735540,.0000727,98.6248,238.9017,94.6800,265.4463,0,U,43437,999,42458,.48499E-4,.74E-6,0
GAOFEN-5 01,2018-043A,2026-06-20T08:23:57.611040,14.60607261,.0003017,98.4569,143.0025,78.1831,281.9707,0,U,43461,999,43215,.57864E-4,.232E-5,0
GAOFEN-6,2018-048A,2026-06-21T13:02:45.877056,14.76604265,.0011981,97.9704,235.2358,151.9103,208.2756,0,U,43484,999,43403,.15912E-3,.1061E-4,0
GAOFEN-11 01,2018-063A,2026-06-21T13:09:30.859776,15.55402749,.0002615,97.1285,239.4163,338.4969,21.6176,0,U,43585,999,44102,.24737E-3,.16745E-3,0
ICESAT-2,2018-070A,2026-06-20T10:17:39.964128,15.28330924,.000611,92.0081,291.8551,100.1552,260.0387,0,U,43613,999,43295,.29199E-3,.8058E-4,0
HYSIS,2018-096A,2026-06-21T13:01:06.060000,14.78623542,.0001791,97.9834,239.2567,96.3154,263.8261,0,U,43719,999,40806,.10958E-3,.75E-5,0
